[{"OBJECT_NAME":"KUIPER-00167","OBJECT_ID":"2025-217U","EPOCH":"2026-03-02T08:29:09.577248","MEAN_MOTION":14.79868012,"ECCENTRICITY":2.7e-5,"INCLINATION":51.8961,"RA_OF_ASC_NODE":78.0071,"ARG_OF_PERICENTER":32.8491,"MEAN_ANOMALY":327.2488,"EPHEMERIS_TYPE":0,"CLASSIFICATION_TYPE":"U","NORAD_CAT_ID":65780,"ELEMENT_SET_NO":999,"REV_AT_EPOCH":2375,"BSTAR":0.00068142389,"MEAN_MOTION_DOT":4.97e-5,"MEAN_MOTION_DDOT":0},{"OBJECT_NAME":"KUIPER-00168","OBJECT_ID":"2025-217V","EPOCH":"2026-03-02T07:18:57.894336","MEAN_MOTION":14.79947264,"ECCENTRICITY":8.433e-5,"INCLINATION":51.9017,"RA_OF_ASC_NODE":60.7557,"ARG_OF_PERICENTER":70.2021,"MEAN_ANOMALY":289.9032,"EPHEMERIS_TYPE":0,"CLASSIFICATION_TYPE":"U","NORAD_CAT_ID":65781,"ELEMENT_SET_NO":999,"REV_AT_EPOCH":2399,"BSTAR":0.00071180656,"MEAN_MOTION_DOT":5.211e-5,"MEAN_MOTION_DDOT":0},{"OBJECT_NAME":"KUIPER-00169","OBJECT_ID":"2025-217W","EPOCH":"2026-03-02T07:11:48.698880","MEAN_MOTION":14.79773372,"ECCENTRICITY":8.109e-5,"INCLINATION":51.9009,"RA_OF_ASC_NODE":65.7839,"ARG_OF_PERICENTER":92.4856,"MEAN_ANOMALY":267.6199,"EPHEMERIS_TYPE":0,"CLASSIFICATION_TYPE":"U","NORAD_CAT_ID":65782,"ELEMENT_SET_NO":999,"REV_AT_EPOCH":2392,"BSTAR":0.00070427301,"MEAN_MOTION_DOT":5.132e-5,"MEAN_MOTION_DDOT":0},{"OBJECT_NAME":"KUIPER-00170","OBJECT_ID":"2025-217X","EPOCH":"2026-03-02T11:54:38.612736","MEAN_MOTION":14.79935227,"ECCENTRICITY":0.0001,"INCLINATION":51.8986,"RA_OF_ASC_NODE":69.8938,"ARG_OF_PERICENTER":89.6073,"MEAN_ANOMALY":270.5004,"EPHEMERIS_TYPE":0,"CLASSIFICATION_TYPE":"U","NORAD_CAT_ID":65783,"ELEMENT_SET_NO":999,"REV_AT_EPOCH":2388,"BSTAR":-0.00087809,"MEAN_MOTION_DOT":-6.909e-5,"MEAN_MOTION_DDOT":0},{"OBJECT_NAME":"KUIPER-00172","OBJECT_ID":"2025-217Z","EPOCH":"2026-03-02T20:00:01.999008","MEAN_MOTION":14.93773989,"ECCENTRICITY":0.0002443,"INCLINATION":51.8938,"RA_OF_ASC_NODE":49.3656,"ARG_OF_PERICENTER":284.7145,"MEAN_ANOMALY":220.918,"EPHEMERIS_TYPE":0,"CLASSIFICATION_TYPE":"U","NORAD_CAT_ID":65785,"ELEMENT_SET_NO":999,"REV_AT_EPOCH":268,"BSTAR":-0.16477,"MEAN_MOTION_DOT":-0.01617562,"MEAN_MOTION_DDOT":0},{"OBJECT_NAME":"KUIPER-00173","OBJECT_ID":"2025-217AA","EPOCH":"2026-03-02T09:42:24.739200","MEAN_MOTION":14.82261155,"ECCENTRICITY":0.0001538,"INCLINATION":51.9013,"RA_OF_ASC_NODE":64.6606,"ARG_OF_PERICENTER":127.9427,"MEAN_ANOMALY":232.1676,"EPHEMERIS_TYPE":0,"CLASSIFICATION_TYPE":"U","NORAD_CAT_ID":65786,"ELEMENT_SET_NO":999,"REV_AT_EPOCH":2394,"BSTAR":0.00078271244,"MEAN_MOTION_DOT":6.088e-5,"MEAN_MOTION_DDOT":0},{"OBJECT_NAME":"KUIPER-00174","OBJECT_ID":"2025-217AB","EPOCH":"2026-03-02T08:07:27.821280","MEAN_MOTION":14.7947072,"ECCENTRICITY":0.00013647,"INCLINATION":51.9038,"RA_OF_ASC_NODE":60.6294,"ARG_OF_PERICENTER":156.4258,"MEAN_ANOMALY":203.6767,"EPHEMERIS_TYPE":0,"CLASSIFICATION_TYPE":"U","NORAD_CAT_ID":65787,"ELEMENT_SET_NO":999,"REV_AT_EPOCH":2399,"BSTAR":0.00074681995,"MEAN_MOTION_DOT":5.415e-5,"MEAN_MOTION_DDOT":0},{"OBJECT_NAME":"KUIPER-00176","OBJECT_ID":"2025-217AC","EPOCH":"2026-03-02T07:44:08.426400","MEAN_MOTION":14.79972345,"ECCENTRICITY":8.658e-5,"INCLINATION":51.8996,"RA_OF_ASC_NODE":75.6773,"ARG_OF_PERICENTER":61.3907,"MEAN_ANOMALY":298.7142,"EPHEMERIS_TYPE":0,"CLASSIFICATION_TYPE":"U","NORAD_CAT_ID":65788,"ELEMENT_SET_NO":999,"REV_AT_EPOCH":2378,"BSTAR":0.00069935021,"MEAN_MOTION_DOT":5.119e-5,"MEAN_MOTION_DDOT":0},{"OBJECT_NAME":"KUIPER-00101","OBJECT_ID":"2025-228A","EPOCH":"2026-03-02T08:01:45.199488","MEAN_MOTION":14.79966097,"ECCENTRICITY":8.535e-5,"INCLINATION":51.8987,"RA_OF_ASC_NODE":33.1019,"ARG_OF_PERICENTER":101.9108,"MEAN_ANOMALY":258.195,"EPHEMERIS_TYPE":0,"CLASSIFICATION_TYPE":"U","NORAD_CAT_ID":65947,"ELEMENT_SET_NO":999,"REV_AT_EPOCH":2214,"BSTAR":0.00082275669,"MEAN_MOTION_DOT":6.061e-5,"MEAN_MOTION_DDOT":0},{"OBJECT_NAME":"KUIPER-00113","OBJECT_ID":"2025-228B","EPOCH":"2026-03-02T07:20:55.006080","MEAN_MOTION":14.79944512,"ECCENTRICITY":8.409e-5,"INCLINATION":51.8987,"RA_OF_ASC_NODE":28.2445,"ARG_OF_PERICENTER":94.3314,"MEAN_ANOMALY":265.7744,"EPHEMERIS_TYPE":0,"CLASSIFICATION_TYPE":"U","NORAD_CAT_ID":65948,"ELEMENT_SET_NO":999,"REV_AT_EPOCH":2220,"BSTAR":0.00084752548,"MEAN_MOTION_DOT":6.248e-5,"MEAN_MOTION_DDOT":0},{"OBJECT_NAME":"KUIPER-00117","OBJECT_ID":"2025-228C","EPOCH":"2026-03-02T14:34:39.187200","MEAN_MOTION":14.79955356,"ECCENTRICITY":0.0001047,"INCLINATION":51.899,"RA_OF_ASC_NODE":29.4158,"ARG_OF_PERICENTER":79.0895,"MEAN_ANOMALY":281.0185,"EPHEMERIS_TYPE":0,"CLASSIFICATION_TYPE":"U","NORAD_CAT_ID":65949,"ELEMENT_SET_NO":999,"REV_AT_EPOCH":2221,"BSTAR":0.00082676,"MEAN_MOTION_DOT":6.09e-5,"MEAN_MOTION_DDOT":0},{"OBJECT_NAME":"KUIPER-00121","OBJECT_ID":"2025-228D","EPOCH":"2026-03-02T13:53:42.050688","MEAN_MOTION":14.79922694,"ECCENTRICITY":0.000125,"INCLINATION":51.902,"RA_OF_ASC_NODE":24.5344,"ARG_OF_PERICENTER":83.413,"MEAN_ANOMALY":276.6975,"EPHEMERIS_TYPE":0,"CLASSIFICATION_TYPE":"U","NORAD_CAT_ID":65950,"ELEMENT_SET_NO":999,"REV_AT_EPOCH":2228,"BSTAR":0.00055861,"MEAN_MOTION_DOT":4.039e-5,"MEAN_MOTION_DDOT":0},{"OBJECT_NAME":"KUIPER-00122","OBJECT_ID":"2025-228E","EPOCH":"2026-03-02T15:13:36.204384","MEAN_MOTION":14.79827015,"ECCENTRICITY":0.0001641,"INCLINATION":51.9012,"RA_OF_ASC_NODE":34.2532,"ARG_OF_PERICENTER":86.0809,"MEAN_ANOMALY":274.0341,"EPHEMERIS_TYPE":0,"CLASSIFICATION_TYPE":"U","NORAD_CAT_ID":65951,"ELEMENT_SET_NO":999,"REV_AT_EPOCH":2215,"BSTAR":-0.0030271,"MEAN_MOTION_DOT":-0.00023161,"MEAN_MOTION_DDOT":0},{"OBJECT_NAME":"KUIPER-00123","OBJECT_ID":"2025-228F","EPOCH":"2026-03-02T07:58:09.047424","MEAN_MOTION":14.79926474,"ECCENTRICITY":0.00010396,"INCLINATION":51.8989,"RA_OF_ASC_NODE":35.6291,"ARG_OF_PERICENTER":89.0654,"MEAN_ANOMALY":271.0427,"EPHEMERIS_TYPE":0,"CLASSIFICATION_TYPE":"U","NORAD_CAT_ID":65952,"ELEMENT_SET_NO":999,"REV_AT_EPOCH":2210,"BSTAR":0.00080042735,"MEAN_MOTION_DOT":5.885e-5,"MEAN_MOTION_DDOT":0},{"OBJECT_NAME":"KUIPER-00124","OBJECT_ID":"2025-228G","EPOCH":"2026-03-02T14:38:31.280064","MEAN_MOTION":14.79948587,"ECCENTRICITY":8.12e-5,"INCLINATION":51.9004,"RA_OF_ASC_NODE":26.8864,"ARG_OF_PERICENTER":101.1266,"MEAN_ANOMALY":258.9788,"EPHEMERIS_TYPE":0,"CLASSIFICATION_TYPE":"U","NORAD_CAT_ID":65953,"ELEMENT_SET_NO":999,"REV_AT_EPOCH":2225,"BSTAR":0.0004783,"MEAN_MOTION_DOT":3.428e-5,"MEAN_MOTION_DDOT":0},{"OBJECT_NAME":"KUIPER-00125","OBJECT_ID":"2025-228H","EPOCH":"2026-03-02T13:24:33.988608","MEAN_MOTION":14.79902872,"ECCENTRICITY":9.85e-5,"INCLINATION":51.9016,"RA_OF_ASC_NODE":12.1366,"ARG_OF_PERICENTER":109.0192,"MEAN_ANOMALY":251.0877,"EPHEMERIS_TYPE":0,"CLASSIFICATION_TYPE":"U","NORAD_CAT_ID":65954,"ELEMENT_SET_NO":999,"REV_AT_EPOCH":2245,"BSTAR":0.00088217,"MEAN_MOTION_DOT":6.506e-5,"MEAN_MOTION_DDOT":0},{"OBJECT_NAME":"KUIPER-00126","OBJECT_ID":"2025-228J","EPOCH":"2026-03-02T15:19:23.307744","MEAN_MOTION":14.79935391,"ECCENTRICITY":0.0001069,"INCLINATION":51.8977,"RA_OF_ASC_NODE":31.781,"ARG_OF_PERICENTER":105.9292,"MEAN_ANOMALY":254.1788,"EPHEMERIS_TYPE":0,"CLASSIFICATION_TYPE":"U","NORAD_CAT_ID":65955,"ELEMENT_SET_NO":999,"REV_AT_EPOCH":2218,"BSTAR":0.00012813,"MEAN_MOTION_DOT":7.56e-6,"MEAN_MOTION_DDOT":0}]
