KUIPER-00167            
1 65780U 25217U   26061.35358307  .00004970  00000+0  68142-3 0  9995
2 65780  51.8961  78.0071 0000270  32.8491 327.2488 14.79868012 23754
KUIPER-00168            
1 65781U 25217V   26061.30483674  .00005211  00000+0  71181-3 0  9993
2 65781  51.9017  60.7557 0000843  70.2021 289.9032 14.79947264 23998
KUIPER-00169            
1 65782U 25217W   26061.29986920  .00005132  00000+0  70427-3 0  9998
2 65782  51.9009  65.7839 0000810  92.4856 267.6199 14.79773372 23921
KUIPER-00170            
1 65783U 25217X   26061.49628024 -.00006909  00000+0 -87809-3 0  9996
2 65783  51.8986  69.8938 0001000  89.6073 270.5004 14.79935227 23883
KUIPER-00172            
1 65785U 25217Z   26061.83335647 -.01617562  00000+0 -16477+0 0  9995
2 65785  51.8938  49.3656 0002443 284.7145 220.9180 14.93773989  2682
KUIPER-00173            
1 65786U 25217AA  26061.40445300  .00006088  00000+0  78271-3 0  9993
2 65786  51.9013  64.6606 0001538 127.9427 232.1676 14.82261155 23940
KUIPER-00174            
1 65787U 25217AB  26061.33851645  .00005415  00000+0  74682-3 0  9994
2 65787  51.9038  60.6294 0001364 156.4258 203.6767 14.79470720 23998
KUIPER-00176            
1 65788U 25217AC  26061.32231975  .00005119  00000+0  69935-3 0  9998
2 65788  51.8996  75.6773 0000865  61.3907 298.7142 14.79972345 23788
KUIPER-00101            
1 65947U 25228A   26061.33455092  .00006061  00000+0  82276-3 0  9996
2 65947  51.8987  33.1019 0000853 101.9108 258.1950 14.79966097 22141
KUIPER-00113            
1 65948U 25228B   26061.30619220  .00006248  00000+0  84753-3 0  9998
2 65948  51.8987  28.2445 0000840  94.3314 265.7744 14.79944512 22200
KUIPER-00117            
1 65949U 25228C   26061.60739800  .00006090  00000+0  82676-3 0  9996
2 65949  51.8990  29.4158 0001047  79.0895 281.0185 14.79955356 22212
KUIPER-00121            
1 65950U 25228D   26061.57895892  .00004039  00000+0  55861-3 0  9995
2 65950  51.9020  24.5344 0001250  83.4130 276.6975 14.79922694 22282
KUIPER-00122            
1 65951U 25228E   26061.63444681 -.00023161  00000+0 -30271-2 0  9995
2 65951  51.9012  34.2532 0001641  86.0809 274.0341 14.79827015 22153
KUIPER-00123            
1 65952U 25228F   26061.33204916  .00005885  00000+0  80043-3 0  9992
2 65952  51.8989  35.6291 0001039  89.0654 271.0427 14.79926474 22101
KUIPER-00124            
1 65953U 25228G   26061.61008426  .00003428  00000+0  47830-3 0  9990
2 65953  51.9004  26.8864 0000812 101.1266 258.9788 14.79948587 22251
KUIPER-00125            
1 65954U 25228H   26061.55872672  .00006506  00000+0  88217-3 0  9990
2 65954  51.9016  12.1366 0000985 109.0192 251.0877 14.79902872 22458
KUIPER-00126            
1 65955U 25228J   26061.63846421  .00000756  00000+0  12813-3 0  9993
2 65955  51.8977  31.7810 0001069 105.9292 254.1788 14.79935391 22182
